LEMUR-2-GREENBERG       
1 42837U 17042N   26068.46200528  .00019778  00000+0  72539-3 0  9997
2 42837  97.3781 249.8007 0009157   4.0119 356.1192 15.27971352473146
STARLINK-31992          
1 60023U 24111H   26068.23458478  .00000925  00000+0  43348-4 0  9994
2 60023  53.1600  77.7534 0000957  85.9323 274.1787 15.30191840 98973
